{"type": "FeatureCollection", "features": [ {"type": "Feature", "properties": {"norad_id": 34529, "name": "IRIDIUM 33 DEB", "group": "iridium-33-debris", "lat": 18.98954910831346, "lon": 32.29876350637479, "alt_km": 759.3311344914691, "timestamp": "2025-12-22T23:36:21.100668+00:00", "meta": {"OBJECT_NAME": "IRIDIUM 33 DEB", "OBJECT_ID": "1997-051HW", "EPOCH": "2025-12-22T11:50:55.230720", "MEAN_MOTION": 14.4062334, "ECCENTRICITY": 0.00059058, "INCLINATION": 86.3633, "RA_OF_ASC_NODE": 31.2535, "ARG_OF_PERICENTER": 148.7666, "MEAN_ANOMALY": 211.3885, "EPHEMERIS_TYPE": 0, "CLASSIFICATION_TYPE": "U", "NORAD_CAT_ID": 34529, "ELEMENT_SET_NO": 999, "REV_AT_EPOCH": 88282, "BSTAR": 0.00011217968, "MEAN_MOTION_DOT": 3.78e-06, "MEAN_MOTION_DDOT": 0}, "tle": {"line1": "1 34529U 97051HW  25356.49369480  .00000378  00000+0  11218-3 0  9992", "line2": "2 34529  86.3633  31.2535 0005905 148.7666 211.3885 14.40623340882823"}}, "geometry": {"type": "Point", "coordinates": [32.29876350637479, 18.98954910831346]}}, {"type": "Feature", "properties": {"norad_id": 34538, "name": "IRIDIUM 33 DEB", "group": "iridium-33-debris", "lat": -67.67786956649783, "lon": -8.05850320188573, "alt_km": 734.0801064456073, "timestamp": "2025-12-22T23:36:21.100678+00:00", "meta": {"OBJECT_NAME": "IRIDIUM 33 DEB", "OBJECT_ID": "1997-051JF", "EPOCH": "2025-12-22T06:12:04.821696", "MEAN_MOTION": 14.42700609, "ECCENTRICITY": 0.00320413, "INCLINATION": 86.2762, "RA_OF_ASC_NODE": 1.3859, "ARG_OF_PERICENTER": 295.0641, "MEAN_ANOMALY": 192.9769, "EPHEMERIS_TYPE": 0, "CLASSIFICATION_TYPE": "U", "NORAD_CAT_ID": 34538, "ELEMENT_SET_NO": 999, "REV_AT_EPOCH": 87893, "BSTAR": 0.00089518329, "MEAN_MOTION_DOT": 3.015e-05, "MEAN_MOTION_DDOT": 0}, "tle": {"line1": "1 34538U 97051JF  25356.25838914  .00003015  00000+0  89518-3 0  9998", "line2": "2 34538  86.2762   1.3859 0032041 295.0641 192.9769 14.42700609878930"}}, "geometry": {"type": "Point", "coordinates": [-8.05850320188573, -67.67786956649783]}}, {"type": "Feature", "properties": {"norad_id": 34540, "name": "IRIDIUM 33 DEB", "group": "iridium-33-debris", "lat": 63.77391446821038, "lon": 115.39805191057609, "alt_km": 625.0574536030272, "timestamp": "2025-12-22T23:36:21.100689+00:00", "meta": {"OBJECT_NAME": "IRIDIUM 33 DEB", "OBJECT_ID": "1997-051JH", "EPOCH": "2025-12-21T19:30:48.758976", "MEAN_MOTION": 14.75487187, "ECCENTRICITY": 0.00178055, "INCLINATION": 86.3115, "RA_OF_ASC_NODE": 303.4575, "ARG_OF_PERICENTER": 128.6543, "MEAN_ANOMALY": 253.8683, "EPHEMERIS_TYPE": 0, "CLASSIFICATION_TYPE": "U", "NORAD_CAT_ID": 34540, "ELEMENT_SET_NO": 999, "REV_AT_EPOCH": 89155, "BSTAR": 0.0012465247, "MEAN_MOTION_DOT": 8.527e-05, "MEAN_MOTION_DDOT": 0}, "tle": {"line1": "1 34540U 97051JH  25355.81306434  .00008527  00000+0  12465-2 0  9998", "line2": "2 34540  86.3115 303.4575 0017805 128.6543 253.8683 14.75487187891554"}}, "geometry": {"type": "Point", "coordinates": [115.39805191057609, 63.77391446821038]}}, {"type": "Feature", "properties": {"norad_id": 34648, "name": "IRIDIUM 33 DEB", "group": "iridium-33-debris", "lat": 74.22772722996781, "lon": -69.27819592287567, "alt_km": 973.3846784940024, "timestamp": "2025-12-22T23:36:21.100699+00:00", "meta": {"OBJECT_NAME": "IRIDIUM 33 DEB", "OBJECT_ID": "1997-051JZ", "EPOCH": "2025-12-21T18:19:39.887904", "MEAN_MOTION": 14.11736102, "ECCENTRICITY": 0.01798232, "INCLINATION": 86.3908, "RA_OF_ASC_NODE": 278.3021, "ARG_OF_PERICENTER": 270.6006, "MEAN_ANOMALY": 87.4576, "EPHEMERIS_TYPE": 0, "CLASSIFICATION_TYPE": "U", "NORAD_CAT_ID": 34648, "ELEMENT_SET_NO": 999, "REV_AT_EPOCH": 85088, "BSTAR": 0.0054657739, "MEAN_MOTION_DOT": 0.00011615, "MEAN_MOTION_DDOT": 0}, "tle": {"line1": "1 34648U 97051JZ  25355.76365611  .00011615  00000+0  54658-2 0  9995", "line2": "2 34648  86.3908 278.3021 0179823 270.6006  87.4576 14.11736102850887"}}, "geometry": {"type": "Point", "coordinates": [-69.27819592287567, 74.22772722996781]}}, {"type": "Feature", "properties": {"norad_id": 34651, "name": "IRIDIUM 33 DEB", "group": "iridium-33-debris", "lat": -61.76110579222334, "lon": 129.266510235052, "alt_km": 872.5907979649273, "timestamp": "2025-12-22T23:36:21.100710+00:00", "meta": {"OBJECT_NAME": "IRIDIUM 33 DEB", "OBJECT_ID": "1997-051KC", "EPOCH": "2025-12-19T16:44:48.420096", "MEAN_MOTION": 14.25922062, "ECCENTRICITY": 0.01422464, "INCLINATION": 86.2827, "RA_OF_ASC_NODE": 137.6175, "ARG_OF_PERICENTER": 181.9677, "MEAN_ANOMALY": 178.0974, "EPHEMERIS_TYPE": 0, "CLASSIFICATION_TYPE": "U", "NORAD_CAT_ID": 34651, "ELEMENT_SET_NO": 999, "REV_AT_EPOCH": 85995, "BSTAR": 0.0022061693, "MEAN_MOTION_DOT": 5.865e-05, "MEAN_MOTION_DDOT": 0}, "tle": {"line1": "1 34651U 97051KC  25353.69778264  .00005865  00000+0  22062-2 0  9995", "line2": "2 34651  86.2827 137.6175 0142246 181.9677 178.0974 14.25922062859957"}}, "geometry": {"type": "Point", "coordinates": [129.266510235052, -61.76110579222334]}}, {"type": "Feature", "properties": {"norad_id": 34652, "name": "IRIDIUM 33 DEB", "group": "iridium-33-debris", "lat": -60.85540058465067, "lon": 162.04705713067295, "alt_km": 676.6136989025563, "timestamp": "2025-12-22T23:36:21.100720+00:00", "meta": {"OBJECT_NAME": "IRIDIUM 33 DEB", "OBJECT_ID": "1997-051KD", "EPOCH": "2025-12-21T05:29:24.538272", "MEAN_MOTION": 14.62128423, "ECCENTRICITY": 0.0025487, "INCLINATION": 86.3314, "RA_OF_ASC_NODE": 336.221, "ARG_OF_PERICENTER": 267.1492, "MEAN_ANOMALY": 103.1146, "EPHEMERIS_TYPE": 0, "CLASSIFICATION_TYPE": "U", "NORAD_CAT_ID": 34652, "ELEMENT_SET_NO": 999, "REV_AT_EPOCH": 88608, "BSTAR": 0.00068722, "MEAN_MOTION_DOT": 3.491e-05, "MEAN_MOTION_DDOT": 0}, "tle": {"line1": "1 34652U 97051KD  25355.22875623  .00003491  00000+0  68722-3 0  9991", "line2": "2 34652  86.3314 336.2210 0025487 267.1492 103.1146 14.62128423886080"}}, "geometry": {"type": "Point", "coordinates": [162.04705713067295, -60.85540058465067]}}, {"type": "Feature", "properties": {"norad_id": 34690, "name": "IRIDIUM 33 DEB", "group": "iridium-33-debris", "lat": -26.56355147906952, "lon": -145.64620412992207, "alt_km": 720.6431208075974, "timestamp": "2025-12-22T23:36:21.100730+00:00", "meta": {"OBJECT_NAME": "IRIDIUM 33 DEB", "OBJECT_ID": "1997-051KM", "EPOCH": "2025-12-22T08:23:45.204864", "MEAN_MOTION": 14.55129058, "ECCENTRICITY": 0.00097229, "INCLINATION": 86.3773, "RA_OF_ASC_NODE": 32.8141, "ARG_OF_PERICENTER": 357.524, "MEAN_ANOMALY": 131.3072, "EPHEMERIS_TYPE": 0, "CLASSIFICATION_TYPE": "U", "NORAD_CAT_ID": 34690, "ELEMENT_SET_NO": 999, "REV_AT_EPOCH": 88234, "BSTAR": 0.00039013292, "MEAN_MOTION_DOT": 1.706e-05, "MEAN_MOTION_DDOT": 0}, "tle": {"line1": "1 34690U 97051KM  25356.34982876  .00001706  00000+0  39013-3 0  9994", "line2": "2 34690  86.3773  32.8141 0009722 357.5240 131.3072 14.55129058882345"}}, "geometry": {"type": "Point", "coordinates": [-145.64620412992207, -26.56355147906952]}}, {"type": "Feature", "properties": {"norad_id": 34693, "name": "IRIDIUM 33 DEB", "group": "iridium-33-debris", "lat": 78.6539352061155, "lon": 99.9385235132159, "alt_km": 464.7573586588969, "timestamp": "2025-12-22T23:36:21.100741+00:00", "meta": {"OBJECT_NAME": "IRIDIUM 33 DEB", "OBJECT_ID": "1997-051KQ", "EPOCH": "2025-12-21T20:43:11.978976", "MEAN_MOTION": 15.30009716, "ECCENTRICITY": 0.00110937, "INCLINATION": 86.3051, "RA_OF_ASC_NODE": 299.2844, "ARG_OF_PERICENTER": 36.8807, "MEAN_ANOMALY": 16.9571, "EPHEMERIS_TYPE": 0, "CLASSIFICATION_TYPE": "U", "NORAD_CAT_ID": 34693, "ELEMENT_SET_NO": 999, "REV_AT_EPOCH": 89054, "BSTAR": 0.0049985621, "MEAN_MOTION_DOT": 0.00148002, "MEAN_MOTION_DDOT": 0}, "tle": {"line1": "1 34693U 97051KQ  25355.86333309  .00148002  00000+0  49986-2 0  9994", "line2": "2 34693  86.3051 299.2844 0011093  36.8807  16.9571 15.30009716890541"}}, "geometry": {"type": "Point", "coordinates": [99.9385235132159, 78.6539352061155]}}, {"type": "Feature", "properties": {"norad_id": 34696, "name": "IRIDIUM 33 DEB", "group": "iridium-33-debris", "lat": 0.9976596373872116, "lon": 22.821016917067684, "alt_km": 712.8699230188722, "timestamp": "2025-12-22T23:36:21.100750+00:00", "meta": {"OBJECT_NAME": "IRIDIUM 33 DEB", "OBJECT_ID": "1997-051KT", "EPOCH": "2025-12-22T12:49:05.985120", "MEAN_MOTION": 14.65530105, "ECCENTRICITY": 0.00739958, "INCLINATION": 86.183, "RA_OF_ASC_NODE": 22.9637, "ARG_OF_PERICENTER": 134.5199, "MEAN_ANOMALY": 17.3354, "EPHEMERIS_TYPE": 0, "CLASSIFICATION_TYPE": "U", "NORAD_CAT_ID": 34696, "ELEMENT_SET_NO": 999, "REV_AT_EPOCH": 86816, "BSTAR": 0.0048858102, "MEAN_MOTION_DOT": 0.00027681, "MEAN_MOTION_DDOT": 0}, "tle": {"line1": "1 34696U 97051KT  25356.53409705  .00027681  00000+0  48858-2 0  9992", "line2": "2 34696  86.1830  22.9637 0073995 134.5199  17.3354 14.65530105868162"}}, "geometry": {"type": "Point", "coordinates": [22.821016917067684, 0.9976596373872116]}}, {"type": "Feature", "properties": {"norad_id": 34765, "name": "IRIDIUM 33 DEB", "group": "iridium-33-debris", "lat": 55.94245067706035, "lon": 33.80173651742618, "alt_km": 757.5623213238568, "timestamp": "2025-12-22T23:36:21.100760+00:00", "meta": {"OBJECT_NAME": "IRIDIUM 33 DEB", "OBJECT_ID": "1997-051LJ", "EPOCH": "2025-12-21T13:03:17.424288", "MEAN_MOTION": 14.40485449, "ECCENTRICITY": 0.0016466, "INCLINATION": 86.3382, "RA_OF_ASC_NODE": 28.9833, "ARG_OF_PERICENTER": 181.3076, "MEAN_ANOMALY": 334.2319, "EPHEMERIS_TYPE": 0, "CLASSIFICATION_TYPE": "U", "NORAD_CAT_ID": 34765, "ELEMENT_SET_NO": 999, "REV_AT_EPOCH": 87740, "BSTAR": 0.00029938, "MEAN_MOTION_DOT": 9.73e-06, "MEAN_MOTION_DDOT": 0}, "tle": {"line1": "1 34765U 97051LJ  25355.54395167  .00000973  00000+0  29938-3 0  9999", "line2": "2 34765  86.3382  28.9833 0016466 181.3076 334.2319 14.40485449877403"}}, "geometry": {"type": "Point", "coordinates": [33.80173651742618, 55.94245067706035]}}]}